ONEWEB-0560             
1 55145U 23004F   25330.63623966  .00000041  00000+0  71158-4 0  9993
2 55145  87.9189  15.7048 0001983  92.0094 268.1265 13.18684371143015
ONEWEB-0565             
1 55146U 23004G   25330.62964244 -.00000011  00000+0 -60303-4 0  9999
2 55146  87.9179  15.7537 0001694  80.5203 279.6121 13.18684163143007
ONEWEB-0567             
1 55147U 23004H   25330.69892273  .00000029  00000+0  41890-4 0  9996
2 55147  87.9190  15.7056 0001894  84.3120 275.8228 13.18684123143012
ONEWEB-0569             
1 55148U 23004J   25330.60426374  .00000196  00000+0  50313-3 0  9997
2 55148  87.9001   0.4734 0002448  75.4591 284.6809 13.13470376143580
ONEWEB-0570             
1 55149U 23004K   25330.68903032  .00000021  00000+0  20755-4 0  9992
2 55149  87.9188  15.7074 0001316  92.5583 267.5699 13.18686805143002
ONEWEB-0571             
1 55150U 23004L   25330.68243374  .00000011  00000+0 -40054-5 0  9995
2 55150  87.9184  15.7089 0002122  60.6968 299.4376 13.18686155143010
ONEWEB-0572             
1 55151U 23004M   25330.76976022  .00000089  00000+0  19710-3 0  9995
2 55151  87.9137  46.1192 0001684  95.3725 264.7599 13.17648453140826
ONEWEB-0573             
1 55152U 23004N   25330.67581970  .00000043  00000+0  76404-4 0  9994
2 55152  87.9178  15.7164 0001455  70.4408 289.6881 13.18684148143006
